{"type": "FeatureCollection", "features": [{"type": "Feature", "properties": {"norad_id": 66454, "name": "VIASAT-3 F2", "group": "last-30-days", "lat": 1.5289116882300544, "lon": 96.09065682133136, "alt_km": 13365.917913203819, "timestamp": "2025-12-12T18:57:42.884230+00:00", "meta": {"OBJECT_NAME": "VIASAT-3 F2", "OBJECT_ID": "2025-261A", "EPOCH": "2025-12-08T12:11:15.383616", "MEAN_MOTION": 2.19142646, "ECCENTRICITY": 0.22792154, "INCLINATION": 5.457, "RA_OF_ASC_NODE": 292.6501, "ARG_OF_PERICENTER": 190.5469, "MEAN_ANOMALY": 204.5187, "EPHEMERIS_TYPE": 0, "CLASSIFICATION_TYPE": "U", "NORAD_CAT_ID": 66454, "ELEMENT_SET_NO": 999, "REV_AT_EPOCH": 55, "BSTAR": 0, "MEAN_MOTION_DOT": -8.1e-07, "MEAN_MOTION_DDOT": 0}, "tle": {"line1": "1 66454U 25261A   25342.50781694 -.00000081  00000+0  00000+0 0  9995", "line2": "2 66454   5.4570 292.6501 2279215 190.5469 204.5187  2.19142646   557"}}, "geometry": {"type": "Point", "coordinates": [96.09065682133136, 1.5289116882300544]}}, {"type": "Feature", "properties": {"norad_id": 66455, "name": "ATLAS 5 CENTAUR R/B", "group": "last-30-days", "lat": 1.1002790745781272, "lon": -58.09692585151767, "alt_km": 23641.463394062175, "timestamp": "2025-12-12T18:57:42.884277+00:00", "meta": {"OBJECT_NAME": "ATLAS 5 CENTAUR R/B", "OBJECT_ID": "2025-261B", "EPOCH": "2025-12-12T03:16:30.695232", "MEAN_MOTION": 2.28259922, "ECCENTRICITY": 0.23294627, "INCLINATION": 6.1465, "RA_OF_ASC_NODE": 291.6766, "ARG_OF_PERICENTER": 186.3629, "MEAN_ANOMALY": 8.9933, "EPHEMERIS_TYPE": 0, "CLASSIFICATION_TYPE": "U", "NORAD_CAT_ID": 66455, "ELEMENT_SET_NO": 999, "REV_AT_EPOCH": 63, "BSTAR": 0, "MEAN_MOTION_DOT": -7.7e-07, "MEAN_MOTION_DDOT": 0}, "tle": {"line1": "1 66455U 25261B   25346.13646638 -.00000077  00000+0  00000+0 0  9992", "line2": "2 66455   6.1465 291.6766 2329462 186.3629   8.9933  2.28259922   632"}}, "geometry": {"type": "Point", "coordinates": [-58.09692585151767, 1.1002790745781272]}}, {"type": "Feature", "properties": {"norad_id": 66456, "name": "STARLINK-35643", "group": "last-30-days", "lat": 40.049036221526855, "lon": 135.7469163828283, "alt_km": 438.25185170156783, "timestamp": "2025-12-12T18:57:42.884298+00:00", "meta": {"OBJECT_NAME": "STARLINK-35643", "OBJECT_ID": "2025-262A", "EPOCH": "2025-12-12T06:12:35.357184", "MEAN_MOTION": 15.40706793, "ECCENTRICITY": 0.00014022, "INCLINATION": 43.0003, "RA_OF_ASC_NODE": 74.3849, "ARG_OF_PERICENTER": 280.3575, "MEAN_ANOMALY": 79.7124, "EPHEMERIS_TYPE": 0, "CLASSIFICATION_TYPE": "U", "NORAD_CAT_ID": 66456, "ELEMENT_SET_NO": 999, "REV_AT_EPOCH": 548, "BSTAR": 0.0015011606, "MEAN_MOTION_DOT": 0.00062937, "MEAN_MOTION_DDOT": 0}, "tle": {"line1": "1 66456U 25262A   25346.25874256  .00062937  00000+0  15012-2 0  9990", "line2": "2 66456  43.0003  74.3849 0001402 280.3575  79.7124 15.40706793  5480"}}, "geometry": {"type": "Point", "coordinates": [135.7469163828283, 40.049036221526855]}}, {"type": "Feature", "properties": {"norad_id": 66457, "name": "STARLINK-35466", "group": "last-30-days", "lat": 42.720618889074096, "lon": 168.95967205001423, "alt_km": 437.80978531488927, "timestamp": "2025-12-12T18:57:42.884311+00:00", "meta": {"OBJECT_NAME": "STARLINK-35466", "OBJECT_ID": "2025-262B", "EPOCH": "2025-12-12T06:06:08.305056", "MEAN_MOTION": 15.40713277, "ECCENTRICITY": 0.00018007, "INCLINATION": 42.9996, "RA_OF_ASC_NODE": 74.3491, "ARG_OF_PERICENTER": 230.6233, "MEAN_ANOMALY": 129.4465, "EPHEMERIS_TYPE": 0, "CLASSIFICATION_TYPE": "U", "NORAD_CAT_ID": 66457, "ELEMENT_SET_NO": 999, "REV_AT_EPOCH": 548, "BSTAR": 0.0024924799, "MEAN_MOTION_DOT": 0.00105309, "MEAN_MOTION_DDOT": 0}, "tle": {"line1": "1 66457U 25262B   25346.25426279  .00105309  00000+0  24925-2 0  9993", "line2": "2 66457  42.9996  74.3491 0001800 230.6233 129.4465 15.40713277  5480"}}, "geometry": {"type": "Point", "coordinates": [168.95967205001423, 42.720618889074096]}}, {"type": "Feature", "properties": {"norad_id": 66458, "name": "STARLINK-35684", "group": "last-30-days", "lat": 42.606197149315605, "lon": 152.04545090793317, "alt_km": 438.01605326774825, "timestamp": "2025-12-12T18:57:42.884323+00:00", "meta": {"OBJECT_NAME": "STARLINK-35684", "OBJECT_ID": "2025-262C", "EPOCH": "2025-12-12T06:09:21.605184", "MEAN_MOTION": 15.4071892, "ECCENTRICITY": 0.00017107, "INCLINATION": 43, "RA_OF_ASC_NODE": 74.3673, "ARG_OF_PERICENTER": 237.7719, "MEAN_ANOMALY": 122.2972, "EPHEMERIS_TYPE": 0, "CLASSIFICATION_TYPE": "U", "NORAD_CAT_ID": 66458, "ELEMENT_SET_NO": 999, "REV_AT_EPOCH": 548, "BSTAR": 0.0021508247, "MEAN_MOTION_DOT": 0.00090674, "MEAN_MOTION_DDOT": 0}, "tle": {"line1": "1 66458U 25262C   25346.25650006  .00090674  00000+0  21508-2 0  9993", "line2": "2 66458  43.0000  74.3673 0001710 237.7719 122.2972 15.40718920  5482"}}, "geometry": {"type": "Point", "coordinates": [152.04545090793317, 42.606197149315605]}}, {"type": "Feature", "properties": {"norad_id": 66459, "name": "STARLINK-35449", "group": "last-30-days", "lat": 40.4272568606059, "lon": -174.85901350264032, "alt_km": 438.52519162733734, "timestamp": "2025-12-12T18:57:42.884335+00:00", "meta": {"OBJECT_NAME": "STARLINK-35449", "OBJECT_ID": "2025-262D", "EPOCH": "2025-12-12T08:00:13.999968", "MEAN_MOTION": 15.40671918, "ECCENTRICITY": 0.00013905, "INCLINATION": 43.0002, "RA_OF_ASC_NODE": 73.8621, "ARG_OF_PERICENTER": 289.1789, "MEAN_ANOMALY": 163.318, "EPHEMERIS_TYPE": 0, "CLASSIFICATION_TYPE": "U", "NORAD_CAT_ID": 66459, "ELEMENT_SET_NO": 999, "REV_AT_EPOCH": 557, "BSTAR": 0.00099268514, "MEAN_MOTION_DOT": 0.00041349, "MEAN_MOTION_DDOT": 0}, "tle": {"line1": "1 66459U 25262D   25346.33349537  .00041349  00000+0  99269-3 0  9992", "line2": "2 66459  43.0002  73.8621 0001390 289.1789 163.3180 15.40671918  5576"}}, "geometry": {"type": "Point", "coordinates": [-174.85901350264032, 40.4272568606059]}}, {"type": "Feature", "properties": {"norad_id": 66460, "name": "STARLINK-35424", "group": "last-30-days", "lat": 35.995747175566216, "lon": -160.0195860518385, "alt_km": 438.9029418558921, "timestamp": "2025-12-12T18:57:42.884350+00:00", "meta": {"OBJECT_NAME": "STARLINK-35424", "OBJECT_ID": "2025-262E", "EPOCH": "2025-12-12T06:00:00.999648", "MEAN_MOTION": 15.40643134, "ECCENTRICITY": 0.00014687, "INCLINATION": 43.0004, "RA_OF_ASC_NODE": 74.3119, "ARG_OF_PERICENTER": 249.9523, "MEAN_ANOMALY": 111.4353, "EPHEMERIS_TYPE": 0, "CLASSIFICATION_TYPE": "U", "NORAD_CAT_ID": 66460, "ELEMENT_SET_NO": 999, "REV_AT_EPOCH": 555, "BSTAR": 0.0019269895, "MEAN_MOTION_DOT": 0.00080896, "MEAN_MOTION_DDOT": 0}, "tle": {"line1": "1 66460U 25262E   25346.25001157  .00080896  00000+0  19270-2 0  9991", "line2": "2 66460  43.0004  74.3119 0001468 249.9523 111.4353 15.40643134  5557"}}, "geometry": {"type": "Point", "coordinates": [-160.0195860518385, 35.995747175566216]}}, {"type": "Feature", "properties": {"norad_id": 66461, "name": "STARLINK-35132", "group": "last-30-days", "lat": 29.96066655150245, "lon": -147.04368814572635, "alt_km": 440.14474079721094, "timestamp": "2025-12-12T18:57:42.884361+00:00", "meta": {"OBJECT_NAME": "STARLINK-35132", "OBJECT_ID": "2025-262F", "EPOCH": "2025-12-12T06:00:00.999648", "MEAN_MOTION": 15.4065013, "ECCENTRICITY": 0.00016233, "INCLINATION": 43.0004, "RA_OF_ASC_NODE": 74.2818, "ARG_OF_PERICENTER": 282.3995, "MEAN_ANOMALY": 91.4064, "EPHEMERIS_TYPE": 0, "CLASSIFICATION_TYPE": "U", "NORAD_CAT_ID": 66461, "ELEMENT_SET_NO": 999, "REV_AT_EPOCH": 555, "BSTAR": 0.0019731087, "MEAN_MOTION_DOT": 0.00082881, "MEAN_MOTION_DDOT": 0}, "tle": {"line1": "1 66461U 25262F   25346.25001157  .00082881  00000+0  19731-2 0  9990", "line2": "2 66461  43.0004  74.2818 0001623 282.3995  91.4064 15.40650130  5550"}}, "geometry": {"type": "Point", "coordinates": [-147.04368814572635, 29.96066655150245]}}, {"type": "Feature", "properties": {"norad_id": 66462, "name": "STARLINK-35499", "group": "last-30-days", "lat": 22.83592232773312, "lon": -135.72694754601417, "alt_km": 440.6554469502762, "timestamp": "2025-12-12T18:57:42.884372+00:00", "meta": {"OBJECT_NAME": "STARLINK-35499", "OBJECT_ID": "2025-262G", "EPOCH": "2025-12-12T06:00:00.999648", "MEAN_MOTION": 15.40626232, "ECCENTRICITY": 0.00013323, "INCLINATION": 43.0004, "RA_OF_ASC_NODE": 74.2507, "ARG_OF_PERICENTER": 249.0653, "MEAN_ANOMALY": 137.1807, "EPHEMERIS_TYPE": 0, "CLASSIFICATION_TYPE": "U", "NORAD_CAT_ID": 66462, "ELEMENT_SET_NO": 999, "REV_AT_EPOCH": 555, "BSTAR": 0.0019974521, "MEAN_MOTION_DOT": 0.00083851, "MEAN_MOTION_DDOT": 0}, "tle": {"line1": "1 66462U 25262G   25346.25001157  .00083851  00000+0  19975-2 0  9999", "line2": "2 66462  43.0004  74.2507 0001332 249.0653 137.1807 15.40626232  5553"}}, "geometry": {"type": "Point", "coordinates": [-135.72694754601417, 22.83592232773312]}}, {"type": "Feature", "properties": {"norad_id": 66463, "name": "STARLINK-35463", "group": "last-30-days", "lat": 6.650009050651327, "lon": -116.10936165510127, "alt_km": 443.03143111613736, "timestamp": "2025-12-12T18:57:42.884383+00:00", "meta": {"OBJECT_NAME": "STARLINK-35463", "OBJECT_ID": "2025-262H", "EPOCH": "2025-12-12T08:00:13.999968", "MEAN_MOTION": 15.40801985, "ECCENTRICITY": 0.00014278, "INCLINATION": 43.0008, "RA_OF_ASC_NODE": 73.7096, "ARG_OF_PERICENTER": 254.3693, "MEAN_ANOMALY": 260.2859, "EPHEMERIS_TYPE": 0, "CLASSIFICATION_TYPE": "U", "NORAD_CAT_ID": 66463, "ELEMENT_SET_NO": 999, "REV_AT_EPOCH": 557, "BSTAR": -0.0042322569, "MEAN_MOTION_DOT": -0.0017372, "MEAN_MOTION_DDOT": 0}, "tle": {"line1": "1 66463U 25262H   25346.33349537 -.00173720  00000+0 -42323-2 0  9996", "line2": "2 66463  43.0008  73.7096 0001427 254.3693 260.2859 15.40801985  5570"}}, "geometry": {"type": "Point", "coordinates": [-116.10936165510127, 6.650009050651327]}}]}